OBJECT_NAME,OBJECT_ID,EPOCH,MEAN_MOTION,ECCENTRICITY,INCLINATION,RA_OF_ASC_NODE,ARG_OF_PERICENTER,MEAN_ANOMALY,EPHEMERIS_TYPE,CLASSIFICATION_TYPE,NORAD_CAT_ID,ELEMENT_SET_NO,REV_AT_EPOCH,BSTAR,MEAN_MOTION_DOT,MEAN_MOTION_DDOT
ONEWEB-0550,2023-043G,2026-07-23T11:41:47.776992,13.21827290,.00019113,87.9231,236.7533,99.4751,260.6599,0,U,56052,999,16302,.71613883E-4,.43E-6,0
ONEWEB-0551,2023-043H,2026-07-23T10:25:48.715104,13.15547685,.00024784,87.8980,252.0039,100.1582,259.9828,0,U,56053,999,16116,.20173452E-3,.89E-6,0
ONEWEB-0552,2023-043J,2026-07-23T13:23:31.345152,13.21825495,.00023715,87.9230,236.7440,105.5309,254.6087,0,U,56054,999,16303,-.17956869E-3,-.61E-6,0
ONEWEB-0553,2023-043K,2026-07-23T06:43:54.490656,13.16593679,.00018774,87.9085,221.6044,82.6956,277.4388,0,U,56055,999,16372,.10302053E-3,.52E-6,0
ONEWEB-0554,2023-043L,2026-07-23T11:53:58.616448,13.16594612,.0001545,87.9072,221.5700,98.6408,261.4898,0,U,56056,999,16373,.22919631E-3,.1E-5,0
ONEWEB-0555,2023-043M,2026-07-23T01:52:04.327104,13.16594342,.00019698,87.9076,221.6419,75.7885,284.3465,0,U,56057,999,16368,-.15032444E-3,-.45E-6,0
ONEWEB-0557,2023-043N,2026-07-23T02:12:35.525376,13.16594189,.00009152,87.9076,221.6491,68.2640,291.8588,0,U,56058,999,16368,-.10130138E-3,-.26E-6,0
ONEWEB-0558,2023-043P,2026-07-23T07:46:50.212992,13.21825831,.00023491,87.9230,236.7860,91.5534,268.5869,0,U,56059,999,16301,.84418375E-4,.48E-6,0
ONEWEB-0559,2023-043Q,2026-07-23T12:56:54.265344,13.21824472,.00022645,87.9228,236.7389,98.0890,262.0501,0,U,56060,999,16305,-.14812383E-4,.7E-7,0
ONEWEB-0566,2023-043R,2026-07-23T01:53:11.970528,13.21823790,.00023484,87.9229,236.8284,98.7961,261.3439,0,U,56061,999,16297,.20633894E-4,.22E-6,0
ONEWEB-0568,2023-043S,2026-07-23T02:37:39.333792,13.16596011,.00019943,87.9073,221.6349,84.9381,275.1978,0,U,56062,999,16370,.21877549E-3,.96E-6,0
ONEWEB-0574,2023-043T,2026-07-23T12:37:31.819872,13.21826145,.00018499,87.9230,236.7445,95.3956,264.7389,0,U,56063,999,16307,.22812626E-3,.107E-5,0
ONEWEB-0575,2023-043U,2026-07-23T11:35:42.544320,13.16595852,.0001643,87.9074,221.5571,87.2098,272.9221,0,U,56064,999,16374,.20407461E-3,.91E-6,0
ONEWEB-0576,2023-043V,2026-07-23T11:08:20.782752,13.16593512,.00018598,87.9085,221.5705,90.4946,269.6398,0,U,56065,999,16373,-.73308321E-3,-.267E-5,0
ONEWEB-0577,2023-043W,2026-07-23T11:17:28.338432,13.16595904,.0001269,87.9079,221.5659,93.7858,266.3418,0,U,56066,999,16376,-.44522226E-4,-.4E-7,0
ONEWEB-0578,2023-043X,2026-07-23T12:18:08.851680,13.21826705,.00019643,87.9230,236.7433,85.5104,274.6255,0,U,56067,999,16303,.16935856E-3,.83E-6,0
ONEWEB-0579,2023-043Y,2026-07-23T08:28:00.800256,13.21823350,.00021589,87.9237,236.7738,102.1384,257.9991,0,U,56068,999,16302,.12844977E-4,.18E-6,0
ONEWEB-0581,2023-043Z,2026-07-23T11:26:35.504448,13.16595611,.00014924,87.9068,221.5745,96.9024,263.2277,0,U,56069,999,16373,-.11067633E-4,.9E-7,0
ONEWEB-0609,2023-043AA,2026-07-23T11:03:27.451296,13.15547517,.00021035,87.8979,251.9833,94.9198,265.2172,0,U,56070,999,16120,-.27354171E-3,-.9E-6,0
ONEWEB-0613,2023-043AB,2026-07-23T03:41:56.444928,13.15548703,.00022744,87.8977,252.0566,100.8999,259.2387,0,U,56071,999,16116,.51265528E-4,.32E-6,0
ONEWEB-0630,2023-043AC,2026-07-23T03:35:04.565760,13.15549728,.00022069,87.8986,252.0314,101.3495,258.7884,0,U,56072,999,16115,-.39718193E-4,-.2E-7,0
ONEWEB-0632,2023-043AD,2026-07-23T03:28:13.593792,13.15561063,.0001611,87.8978,252.0485,98.5965,261.5347,0,U,56073,999,16115,-.57226519E-2,-.2141E-4,0
ONEWEB-0633,2023-043AE,2026-07-23T08:47:41.572896,13.15548790,.00024535,87.8988,251.9826,100.2997,259.8410,0,U,56074,999,16116,.18316343E-3,.82E-6,0
ONEWEB-0634,2023-043AF,2026-07-23T13:55:43.875552,13.15548386,.00021303,87.8977,251.9774,87.8882,272.2492,0,U,56075,999,16118,.32121221E-3,.134E-5,0
ONEWEB-0635,2023-043AG,2026-07-23T04:41:16.214784,13.15548039,.00017606,87.8981,252.0196,98.8417,261.2912,0,U,56076,999,16116,.39517405E-3,.162E-5,0
ONEWEB-0636,2023-043AH,2026-07-23T13:37:28.142112,13.15547994,.00018101,87.8981,251.9509,98.3762,261.7574,0,U,56077,999,16119,.27171318E-3,.115E-5,0
ONEWEB-0637,2023-043AJ,2026-07-23T04:20:43.714464,13.15548419,.00018672,87.8968,252.0419,89.2923,270.8421,0,U,56078,999,16116,.73805671E-4,.41E-6,0
ONEWEB-0647,2023-043AK,2026-07-23T13:21:29.128032,13.15549007,.00020049,87.8974,251.9797,100.6597,259.4760,0,U,56079,999,16120,-.16862967E-3,-.51E-6,0
ONEWEB-0651,2023-043AL,2026-07-23T13:14:39.497856,13.15548362,.00018244,87.8974,251.9737,94.7812,265.3527,0,U,56080,999,16240,.15365467E-4,.19E-6,0
ONEWEB-0718,2023-043AM,2026-07-23T04:00:10.630080,13.15549879,.00024239,87.8982,252.0314,87.7151,272.4257,0,U,56081,999,16116,-.35943046E-3,-.122E-5,0
ONEWEB-0561,2023-068A,2026-07-23T09:49:33.539808,13.20771146,.00018283,87.9178,267.2253,105.8151,254.3184,0,U,56710,999,15428,.15481017E-3,.76E-6,0
ONEWEB-0668,2023-068B,2026-07-23T10:50:07.224000,13.16595394,.00021282,87.9079,221.5686,77.2644,282.8724,0,U,56711,999,15655,-.13181265E-3,-.38E-6,0
ONEWEB-0676,2023-068C,2026-07-23T07:22:38.186688,13.16592755,.00017549,87.9078,221.6035,93.8992,266.2339,0,U,56712,999,15645,-.23043164E-4,.4E-7,0
ONEWEB-0677,2023-068D,2026-07-23T04:05:19.685472,13.20772528,.00017247,87.9181,267.2643,91.1361,268.9970,0,U,56713,999,15455,.16691522E-3,.81E-6,0
ONEWEB-0678,2023-068E,2026-07-23T14:11:42.180288,13.15548021,.00021252,87.8983,251.9422,102.9333,257.2034,0,U,56714,999,15407,.39330449E-3,.161E-5,0
ONEWEB-0679,2023-068F,2026-07-23T02:44:30.623712,13.16594400,.00017387,87.9076,221.6331,77.6438,282.4887,0,U,56715,999,15645,.14845091E-3,.7E-6,0
ONEWEB-0680,2023-068G,2026-07-23T03:03:25.388352,13.21826415,.00020281,87.9235,236.8201,78.3402,281.7959,0,U,56716,999,15584,.68142614E-4,.41E-6,0
ONEWEB-0681,2023-068H,2026-07-23T08:02:33.943776,13.21824135,.00011697,87.9234,236.7791,109.6010,250.5250,0,U,56717,999,15586,-.25549754E-3,-.93E-6,0
ONEWEB-0682,2023-068J,2026-07-23T12:56:24.244800,13.15548347,.00020222,87.8982,251.9522,82.0479,278.0881,0,U,56718,999,15423,-.42337584E-3,-.147E-5,0
ONEWEB-0683,2023-068K,2026-07-23T04:23:00.585888,13.15548639,.00021216,87.8986,252.0245,89.4976,270.6398,0,U,56719,999,15415,-.25346402E-4,.3E-7,0
ONEWEB-0684,2023-068L,2026-07-23T13:42:01.096128,13.15549849,.00032282,87.8979,251.9359,110.8176,249.3301,0,U,56720,999,15403,.21672026E-3,.94E-6,0
ONEWEB-0686,2023-068M,2026-07-23T01:47:31.317792,13.16594391,.00023652,87.9068,221.6610,88.3299,271.8103,0,U,56721,999,15643,-.16369548E-3,-.5E-6,0
ONEWEB-0694,2023-068N,2026-07-23T01:56:38.758560,13.16593527,.00021134,87.9089,221.6315,79.3301,280.8068,0,U,56722,999,15649,-.76157809E-4,-.16E-6,0
ONEWEB-0696,2023-068P,2026-07-23T03:32:47.442048,13.15550068,.00021668,87.8979,252.0562,109.5263,250.6101,0,U,56723,999,15409,.13741248E-3,.65E-6,0
ONEWEB-0703,2023-068Q,2026-07-23T09:15:04.248576,13.15547614,.00020652,87.8977,251.9899,121.6499,238.4833,0,U,56724,999,15401,-.36175276E-3,-.123E-5,0
ONEWEB-0721,2023-068R,2026-07-23T14:34:54.651936,13.22471610,.0001756,86.6739,73.8872,82.3158,277.8175,0,U,56725,999,16275,.24729547E-4,.25E-6,0
ONEWEB-0015,2024-188A,2026-07-22T00:35:16.196064,13.11414931,.00013566,87.8886,14.1549,81.3582,278.7700,0,U,61594,999,8902,-.54887423E-4,-.7E-7,0
ONEWEB-0687,2024-188B,2026-07-23T09:02:00.604032,13.17648150,.00017185,87.9150,358.6764,78.5204,281.6120,0,U,61595,999,9066,.63454892E-4,.38E-6,0
ONEWEB-0688,2024-188C,2026-07-23T09:43:18.505920,13.17647557,.00007166,87.9151,358.6707,67.7125,292.4083,0,U,61596,999,9066,.46761207E-4,.31E-6,0
ONEWEB-0689,2024-188D,2026-07-23T10:21:41.971392,13.11418783,.00019798,87.8901,13.8379,84.3763,275.7591,0,U,61597,999,8920,-.9796727E-3,-.335E-5,0
ONEWEB-0690,2024-188E,2026-07-23T10:36:22.128192,13.11419223,.00018345,87.8900,13.8461,112.3121,247.8202,0,U,61598,999,8938,.77384219E-4,.4E-6,0
ONEWEB-0691,2024-188F,2026-07-23T10:29:02.708160,13.11418552,.00014996,87.8917,13.7607,83.3408,276.7891,0,U,61599,999,8923,-.4207427E-3,-.136E-5,0
ONEWEB-0692,2024-188G,2026-07-23T10:58:19.970112,13.11418630,.00026039,87.8891,13.8618,89.8273,270.3153,0,U,61600,999,8922,.1622466E-2,.588E-5,0
ONEWEB-0693,2024-188H,2026-07-23T10:00:19.917216,13.17648181,.00017211,87.9148,358.6867,121.2656,238.8644,0,U,61601,999,9065,.20478086E-3,.92E-6,0
ONEWEB-0695,2024-188J,2026-07-23T10:24:09.149472,13.11418810,.00022666,87.8887,13.8589,84.2735,275.8652,0,U,61602,999,8921,-.76866679E-3,-.26E-5,0
ONEWEB-0697,2024-188K,2026-07-23T00:11:21.160320,13.11416051,.00025697,87.8892,13.9336,93.1106,267.0316,0,U,61603,999,8914,.14158584E-2,.515E-5,0
ONEWEB-0698,2024-188L,2026-07-23T05:09:11.865024,13.11426529,.00027411,87.8883,13.9059,111.5980,248.5440,0,U,61604,999,8919,.25221589E-2,.907E-5,0
ONEWEB-0699,2024-188M,2026-07-23T11:38:29.584896,13.10376625,.00024775,87.8824,29.0314,92.7787,267.3624,0,U,61605,999,8806,.25857611E-3,.103E-5,0
ONEWEB-0700,2024-188N,2026-07-23T11:40:57.409248,13.10375816,.00023265,87.8848,28.9463,90.9970,269.1424,0,U,61606,999,8805,.72706897E-3,.266E-5,0
ONEWEB-0701,2024-188P,2026-07-23T01:05:39.967872,13.10372038,.00026243,87.8823,29.1194,94.7029,265.4398,0,U,61607,999,8800,.18597818E-2,.662E-5,0
ONEWEB-0702,2024-188Q,2026-07-23T09:54:51.749280,13.11415246,.00028286,87.8906,13.7791,87.1200,273.0251,0,U,61608,999,8923,-.87350247E-3,-.297E-5,0
ONEWEB-0704,2024-188R,2026-07-23T11:48:16.528608,13.10374553,.00028096,87.8828,29.0209,82.5574,277.5873,0,U,61609,999,8804,.11976896E-2,.431E-5,0
ONEWEB-0705,2024-188S,2026-07-23T11:55:37.104672,13.10374264,.00024732,87.8829,29.0260,67.4339,292.7050,0,U,61610,999,8021,.17683919E-2,.63E-5,0
ONEWEB-0706,2024-188T,2026-07-23T11:33:36.051264,13.10376279,.00023315,87.8828,29.0323,81.6026,278.5366,0,U,61611,999,8813,-.21826519E-3,-.64E-6,0
ONEWEB-0707,2024-188U,2026-07-23T06:13:31.039392,13.10374426,.00023438,87.8828,29.0721,82.8247,277.3147,0,U,61612,999,8804,.8952265E-3,.325E-5,0
